[{"OBJECT_NAME":"YAOGAN-31 03A","OBJECT_ID":"2021-014A","EPOCH":"2026-03-10T00:24:06.247008","MEAN_MOTION":13.45441662,"ECCENTRICITY":0.01684055,"INCLINATION":63.4026,"RA_OF_ASC_NODE":92.704,"ARG_OF_PERICENTER":0.2198,"MEAN_ANOMALY":359.8873,"EPHEMERIS_TYPE":0,"CLASSIFICATION_TYPE":"U","NORAD_CAT_ID":47691,"ELEMENT_SET_NO":999,"REV_AT_EPOCH":24743,"BSTAR":0.00052010805,"MEAN_MOTION_DOT":2.46e-6,"MEAN_MOTION_DDOT":0},{"OBJECT_NAME":"SL-8 R\/B","OBJECT_ID":"1978-122B","EPOCH":"2026-03-09T22:08:45.907584","MEAN_MOTION":13.22164707,"ECCENTRICITY":0.00243144,"INCLINATION":82.9677,"RA_OF_ASC_NODE":244.6432,"ARG_OF_PERICENTER":279.4293,"MEAN_ANOMALY":190.5586,"EPHEMERIS_TYPE":0,"CLASSIFICATION_TYPE":"U","NORAD_CAT_ID":11170,"ELEMENT_SET_NO":999,"REV_AT_EPOCH":25975,"BSTAR":0.00013896554,"MEAN_MOTION_DOT":7.1e-7,"MEAN_MOTION_DDOT":0}]
